
# Worst residual: 70.14 km
# MJD 59659.000000 (2022 Mar 21  0:00)
A10FhLB = A10Fn69 = A10FkDn = A10ESVd
1 79993U 22999ZZT 22080.49919926  .00000000  00000-0  00000-0 0 15008
2 79993 026.1841 038.2624 7412812 314.5741 010.7531 00.89593357    02

# Worst residual: 82.38 km
# MJD 59660.000000 (2022 Mar 22  0:00)
A10FhLB = A10Fn69 = A10FkDn = A10ESVd
1 79993U 22999ZZT 22081.49919926  .00000000  00000-0  00000-0 0 15009
2 79993 026.2687 038.0132 7405925 315.1492 332.0197 00.89509898    05

# Worst residual: 95.06 km
# MJD 59661.000000 (2022 Mar 23  0:00)
A10FhLB = A10Fn69 = A10FkDn = A10ESVd
1 79993U 22999ZZT 22082.49919926  .00000000  00000-0  00000-0 0 15000
2 79993 026.3560 037.7647 7396935 315.6922 293.3905 00.89409656    03

# Worst residual: 61.61 km
# MJD 59662.000000 (2022 Mar 24  0:00)
A10FhLB = A10Fn69 = A10FkDn = A10ESVd
1 79993U 22999ZZT 22083.49919926  .00000000  00000-0  00000-0 0 15001
2 79993 026.4202 037.5604 7384869 316.2017 254.8068 00.89326185    00

# Worst residual: 37.58 km
# MJD 59663.000000 (2022 Mar 25  0:00)
A10FhLB = A10Fn69 = A10FkDn = A10ESVd
1 79993U 22999ZZT 22084.49919926  .00000000  00000-0  00000-0 0 15002
2 79993 026.4972 037.3515 7370878 316.7438 216.2119 00.89277088    06

# Worst residual: 40.88 km
# MJD 59664.000000 (2022 Mar 26  0:00)
A10FhLB = A10Fn69 = A10FkDn = A10ESVd
1 79993U 22999ZZT 22085.49919926  .00000000  00000-0  00000-0 0 15003
2 79993 026.5786 037.1340 7362078 317.3081 177.6216 00.89296111    04

# Worst residual: 59.64 km
# MJD 59665.000000 (2022 Mar 27  0:00)
A10FhLB = A10Fn69 = A10FkDn = A10ESVd
1 79993U 22999ZZT 22086.49919926  .00000000  00000-0  00000-0 0 15004
2 79993 026.6586 036.9351 7358847 317.8291 139.0505 00.89381270    03

# Worst residual: 81.71 km
# MJD 59666.000000 (2022 Mar 28  0:00)
A10FhLB = A10Fn69 = A10FkDn = A10ESVd
1 79993U 22999ZZT 22087.49919926  .00000000  00000-0  00000-0 0 15005
2 79993 026.7450 036.7368 7351059 318.3190 100.4941 00.89473192    03

# Worst residual: 89.92 km
# MJD 59667.000000 (2022 Mar 29  0:00)
A10FhLB = A10Fn69 = A10FkDn = A10ESVd
1 79993U 22999ZZT 22088.49919926  .00000000  00000-0  00000-0 0 15006
2 79993 026.8245 036.5566 7338185 318.8012 061.8674 00.89568468    01

# Worst residual: 61.91 km
# MJD 59668.000000 (2022 Mar 30  0:00)
A10FhLB = A10Fn69 = A10FkDn = A10ESVd
1 79993U 22999ZZT 22089.49919926  .00000000  00000-0  00000-0 0 15007
2 79993 026.9183 036.3368 7324164 319.3493 023.1378 00.89596816    02

# Worst residual: 88.38 km
# MJD 59669.000000 (2022 Mar 31  0:00)
A10FhLB = A10Fn69 = A10FkDn = A10ESVd
1 79993U 22999ZZT 22090.49919926  .00000000  00000-0  00000-0 0 15009
2 79993 027.0013 036.1452 7312110 319.8771 344.3985 00.89527691    07

# Worst residual: 94.11 km
# MJD 59670.000000 (2022 Apr  1  0:00)
A10FhLB = A10Fn69 = A10FkDn = A10ESVd
1 79993U 22999ZZT 22091.49919926  .00000000  00000-0  00000-0 0 15000
2 79993 027.0890 035.9253 7299762 320.3992 305.7653 00.89412035    03

# Worst residual: 78.56 km
# MJD 59671.000000 (2022 Apr  2  0:00)
A10FhLB = A10Fn69 = A10FkDn = A10ESVd
1 79993U 22999ZZT 22092.49919926  .00000000  00000-0  00000-0 0 15001
2 79993 027.1596 035.7381 7282471 320.8852 267.1964 00.89330592    09

# Worst residual: 35.24 km
# MJD 59672.000000 (2022 Apr  3  0:00)
A10FhLB = A10Fn69 = A10FkDn = A10ESVd
1 79993U 22999ZZT 22093.49919926  .00000000  00000-0  00000-0 0 15002
2 79993 027.2298 035.5627 7263636 321.3866 228.6343 00.89278892    00

# Worst residual: 38.21 km
# MJD 59673.000000 (2022 Apr  4  0:00)
A10FhLB = A10Fn69 = A10FkDn = A10ESVd
1 79993U 22999ZZT 22094.49919926  .00000000  00000-0  00000-0 0 15003
2 79993 027.3117 035.3780 7250218 321.9152 190.0733 00.89296653    05

# Worst residual: 60.95 km
# MJD 59674.000000 (2022 Apr  5  0:00)
A10FhLB = A10Fn69 = A10FkDn = A10ESVd
1 79993U 22999ZZT 22095.49919926  .00000000  00000-0  00000-0 0 15004
2 79993 027.3931 035.2037 7240914 322.4210 151.5075 00.89371180    06

# Worst residual: 83.48 km
# MJD 59675.000000 (2022 Apr  6  0:00)
A10FhLB = A10Fn69 = A10FkDn = A10ESVd
1 79993U 22999ZZT 22096.49919926  .00000000  00000-0  00000-0 0 15005
2 79993 027.4671 035.0544 7229702 322.8574 112.9893 00.89466507    05

# Worst residual: 86.57 km
# MJD 59676.000000 (2022 Apr  7  0:00)
A10FhLB = A10Fn69 = A10FkDn = A10ESVd
1 79993U 22999ZZT 22097.49919926  .00000000  00000-0  00000-0 0 15006
2 79993 027.5485 034.8985 7212950 323.3026 074.4133 00.89559354    02

# Worst residual: 54.77 km
# MJD 59677.000000 (2022 Apr  8  0:00)
A10FhLB = A10Fn69 = A10FkDn = A10ESVd
1 79993U 22999ZZT 22098.49919926  .00000000  00000-0  00000-0 0 15007
2 79993 027.6347 034.7330 7194096 323.7850 035.7343 00.89604089    01

# Worst residual: 82.78 km
# MJD 59678.000000 (2022 Apr  9  0:00)
A10FhLB = A10Fn69 = A10FkDn = A10ESVd
1 79993U 22999ZZT 22099.49919926  .00000000  00000-0  00000-0 0 15008
2 79993 027.7182 034.5579 7176776 324.2891 357.0259 00.89541770    01

# Worst residual: 88.84 km
# MJD 59679.000000 (2022 Apr 10  0:00)
A10FhLB = A10Fn69 = A10FkDn = A10ESVd
1 79993U 22999ZZT 22100.49919926  .00000000  00000-0  00000-0 0 15001
2 79993 027.8069 034.3799 7159186 324.7708 318.4027 00.89439851    06

# Worst residual: 88.71 km
# MJD 59680.000000 (2022 Apr 11  0:00)
A10FhLB = A10Fn69 = A10FkDn = A10ESVd
1 79993U 22999ZZT 22101.49919926  .00000000  00000-0  00000-0 0 15002
2 79993 027.8791 034.2181 7139087 325.2259 279.8604 00.89345268    06

# Worst residual: 30.50 km
# MJD 59681.000000 (2022 Apr 12  0:00)
A10FhLB = A10Fn69 = A10FkDn = A10ESVd
1 79993U 22999ZZT 22102.49919926  .00000000  00000-0  00000-0 0 15003
2 79993 027.9442 034.0666 7116445 325.6937 241.3278 00.89286750    07

# Worst residual: 35.09 km
# MJD 59682.000000 (2022 Apr 13  0:00)
A10FhLB = A10Fn69 = A10FkDn = A10ESVd
1 79993U 22999ZZT 22103.49919926  .00000000  00000-0  00000-0 0 15004
2 79993 028.0172 033.9278 7097260 326.1830 202.7748 00.89282847    03

# Worst residual: 51.37 km
# MJD 59683.000000 (2022 Apr 14  0:00)
A10FhLB = A10Fn69 = A10FkDn = A10ESVd
1 79993U 22999ZZT 22104.49919926  .00000000  00000-0  00000-0 0 15005
2 79993 028.0986 033.7724 7081799 326.6827 164.2020 00.89337038    09

# Worst residual: 75.80 km
# MJD 59684.000000 (2022 Apr 15  0:00)
A10FhLB = A10Fn69 = A10FkDn = A10ESVd
1 79993U 22999ZZT 22105.49919926  .00000000  00000-0  00000-0 0 15006
2 79993 028.1710 033.6454 7069060 327.1027 125.6994 00.89450930    07

# Worst residual: 82.62 km
# MJD 59685.000000 (2022 Apr 16  0:00)
A10FhLB = A10Fn69 = A10FkDn = A10ESVd
1 79993U 22999ZZT 22106.49919926  .00000000  00000-0  00000-0 0 15007
2 79993 028.2465 033.5226 7048416 327.5143 087.1422 00.89551483    09

# Worst residual: 62.40 km
# MJD 59686.000000 (2022 Apr 17  0:00)
A10FhLB = A10Fn69 = A10FkDn = A10ESVd
1 79993U 22999ZZT 22107.49919926  .00000000  00000-0  00000-0 0 15008
2 79993 028.3281 033.3906 7023342 327.9622 048.4847 00.89609344    07
